[{"OBJECT_NAME":"JILIN-1 10","OBJECT_ID":"2019-005E","EPOCH":"2026-03-09T22:11:06.915840","MEAN_MOTION":15.2445874,"ECCENTRICITY":0.00069203,"INCLINATION":97.4731,"RA_OF_ASC_NODE":167.8564,"ARG_OF_PERICENTER":265.2171,"MEAN_ANOMALY":94.8276,"EPHEMERIS_TYPE":0,"CLASSIFICATION_TYPE":"U","NORAD_CAT_ID":43946,"ELEMENT_SET_NO":999,"REV_AT_EPOCH":39418,"BSTAR":0.00035023991,"MEAN_MOTION_DOT":8.535e-5,"MEAN_MOTION_DDOT":0},{"OBJECT_NAME":"INNOCUBE (TUSAT-31)","OBJECT_ID":"2025-009H","EPOCH":"2026-03-09T17:29:29.528736","MEAN_MOTION":15.24956202,"ECCENTRICITY":0.00051092,"INCLINATION":97.3947,"RA_OF_ASC_NODE":149.8573,"ARG_OF_PERICENTER":335.5214,"MEAN_ANOMALY":24.578,"EPHEMERIS_TYPE":0,"CLASSIFICATION_TYPE":"U","NORAD_CAT_ID":62616,"ELEMENT_SET_NO":999,"REV_AT_EPOCH":6365,"BSTAR":0.00037462408,"MEAN_MOTION_DOT":9.271e-5,"MEAN_MOTION_DDOT":0}]
